{"type": "FeatureCollection", "features": [ {"type": "Feature", "properties": {"norad_id": 66737, "name": "FLOCK 4H-34", "group": "last-30-days", "lat": 29.81021381141213, "lon": -105.93970907930407, "alt_km": 508.14980868738894, "timestamp": "2025-12-24T03:53:28.361404+00:00", "meta": {"OBJECT_NAME": "FLOCK 4H-34", "OBJECT_ID": "2025-276BZ", "EPOCH": "2025-12-23T13:00:03.335328", "MEAN_MOTION": 15.1853847, "ECCENTRICITY": 7.68e-05, "INCLINATION": 97.4433, "RA_OF_ASC_NODE": 69.1538, "ARG_OF_PERICENTER": 107.7551, "MEAN_ANOMALY": 252.3767, "EPHEMERIS_TYPE": 0, "CLASSIFICATION_TYPE": "U", "NORAD_CAT_ID": 66737, "ELEMENT_SET_NO": 999, "REV_AT_EPOCH": 301, "BSTAR": 0.0039374, "MEAN_MOTION_DOT": 0.00082086, "MEAN_MOTION_DDOT": 0}, "tle": {"line1": "1 66737U 25276BZ  25357.54170527  .00082086  00000+0  39374-2 0  9995", "line2": "2 66737  97.4433  69.1538 0000768 107.7551 252.3767 15.18538470  3018"}}, "geometry": {"type": "Point", "coordinates": [-105.93970907930407, 29.81021381141213]}}, {"type": "Feature", "properties": {"norad_id": 66738, "name": "FLOCK 4H-35", "group": "last-30-days", "lat": 22.36179310534733, "lon": -107.16240965157871, "alt_km": 509.23890981983186, "timestamp": "2025-12-24T03:53:28.361414+00:00", "meta": {"OBJECT_NAME": "FLOCK 4H-35", "OBJECT_ID": "2025-276CA", "EPOCH": "2025-12-23T17:42:35.968320", "MEAN_MOTION": 15.18255641, "ECCENTRICITY": 0.000242, "INCLINATION": 97.4402, "RA_OF_ASC_NODE": 69.3386, "ARG_OF_PERICENTER": 145.7931, "MEAN_ANOMALY": 214.3459, "EPHEMERIS_TYPE": 0, "CLASSIFICATION_TYPE": "U", "NORAD_CAT_ID": 66738, "ELEMENT_SET_NO": 999, "REV_AT_EPOCH": 308, "BSTAR": 0.00050977, "MEAN_MOTION_DOT": 0.00010381, "MEAN_MOTION_DDOT": 0}, "tle": {"line1": "1 66738U 25276CA  25357.73791630  .00010381  00000+0  50977-3 0  9993", "line2": "2 66738  97.4402  69.3386 0002420 145.7931 214.3459 15.18255641  3088"}}, "geometry": {"type": "Point", "coordinates": [-107.16240965157871, 22.36179310534733]}}, {"type": "Feature", "properties": {"norad_id": 66739, "name": "FLOCK 4H-36", "group": "last-30-days", "lat": 45.37526313822892, "lon": -102.62343660569525, "alt_km": 506.8334103106181, "timestamp": "2025-12-24T03:53:28.361430+00:00", "meta": {"OBJECT_NAME": "FLOCK 4H-36", "OBJECT_ID": "2025-276CB", "EPOCH": "2025-12-23T17:48:37.548000", "MEAN_MOTION": 15.18005961, "ECCENTRICITY": 0.000243, "INCLINATION": 97.4448, "RA_OF_ASC_NODE": 69.35, "ARG_OF_PERICENTER": 181.9124, "MEAN_ANOMALY": 178.2101, "EPHEMERIS_TYPE": 0, "CLASSIFICATION_TYPE": "U", "NORAD_CAT_ID": 66739, "ELEMENT_SET_NO": 999, "REV_AT_EPOCH": 379, "BSTAR": 0.00049132, "MEAN_MOTION_DOT": 9.931e-05, "MEAN_MOTION_DDOT": 0}, "tle": {"line1": "1 66739U 25276CB  25357.74210125  .00009931  00000+0  49132-3 0  9990", "line2": "2 66739  97.4448  69.3500 0002430 181.9124 178.2101 15.18005961  3792"}}, "geometry": {"type": "Point", "coordinates": [-102.62343660569525, 45.37526313822892]}}, {"type": "Feature", "properties": {"norad_id": 66740, "name": "TRANSPORTER-15CC", "group": "last-30-days", "lat": 71.78778646817116, "lon": -86.85246479430948, "alt_km": 506.67664326047, "timestamp": "2025-12-24T03:53:28.361443+00:00", "meta": {"OBJECT_NAME": "TRANSPORTER-15CC", "OBJECT_ID": "2025-276CC", "EPOCH": "2025-12-23T17:55:44.196384", "MEAN_MOTION": 15.17721581, "ECCENTRICITY": 0.0002164, "INCLINATION": 97.4411, "RA_OF_ASC_NODE": 69.3342, "ARG_OF_PERICENTER": 233.6753, "MEAN_ANOMALY": 126.4281, "EPHEMERIS_TYPE": 0, "CLASSIFICATION_TYPE": "U", "NORAD_CAT_ID": 66740, "ELEMENT_SET_NO": 999, "REV_AT_EPOCH": 379, "BSTAR": 0.00042087, "MEAN_MOTION_DOT": 8.426e-05, "MEAN_MOTION_DDOT": 0}, "tle": {"line1": "1 66740U 25276CC  25357.74703931  .00008426  00000+0  42087-3 0  9994", "line2": "2 66740  97.4411  69.3342 0002164 233.6753 126.4281 15.17721581  3791"}}, "geometry": {"type": "Point", "coordinates": [-86.85246479430948, 71.78778646817116]}}, {"type": "Feature", "properties": {"norad_id": 66741, "name": "TRANSPORTER-15CD", "group": "last-30-days", "lat": 76.80307103879689, "lon": -76.39682116053329, "alt_km": 506.1654421580606, "timestamp": "2025-12-24T03:53:28.361453+00:00", "meta": {"OBJECT_NAME": "TRANSPORTER-15CD", "OBJECT_ID": "2025-276CD", "EPOCH": "2025-12-23T17:57:12.843648", "MEAN_MOTION": 15.17622987, "ECCENTRICITY": 0.0001058, "INCLINATION": 97.4407, "RA_OF_ASC_NODE": 69.3245, "ARG_OF_PERICENTER": 222.9669, "MEAN_ANOMALY": 137.1482, "EPHEMERIS_TYPE": 0, "CLASSIFICATION_TYPE": "U", "NORAD_CAT_ID": 66741, "ELEMENT_SET_NO": 999, "REV_AT_EPOCH": 379, "BSTAR": 0.00022135, "MEAN_MOTION_DOT": 4.385e-05, "MEAN_MOTION_DDOT": 0}, "tle": {"line1": "1 66741U 25276CD  25357.74806532  .00004385  00000+0  22135-3 0  9998", "line2": "2 66741  97.4407  69.3245 0001058 222.9669 137.1482 15.17622987  3799"}}, "geometry": {"type": "Point", "coordinates": [-76.39682116053329, 76.80307103879689]}}, {"type": "Feature", "properties": {"norad_id": 66742, "name": "TRANSPORTER-15CE", "group": "last-30-days", "lat": 69.00878399534915, "lon": -90.35412270670044, "alt_km": 505.78518232507304, "timestamp": "2025-12-24T03:53:28.361463+00:00", "meta": {"OBJECT_NAME": "TRANSPORTER-15CE", "OBJECT_ID": "2025-276CE", "EPOCH": "2025-12-23T17:54:56.634048", "MEAN_MOTION": 15.1771044, "ECCENTRICITY": 0.0001677, "INCLINATION": 97.4403, "RA_OF_ASC_NODE": 69.3241, "ARG_OF_PERICENTER": 187.4386, "MEAN_ANOMALY": 172.6823, "EPHEMERIS_TYPE": 0, "CLASSIFICATION_TYPE": "U", "NORAD_CAT_ID": 66742, "ELEMENT_SET_NO": 999, "REV_AT_EPOCH": 379, "BSTAR": 0.00049253, "MEAN_MOTION_DOT": 9.871e-05, "MEAN_MOTION_DDOT": 0}, "tle": {"line1": "1 66742U 25276CE  25357.74648882  .00009871  00000+0  49253-3 0  9996", "line2": "2 66742  97.4403  69.3241 0001677 187.4386 172.6823 15.17710440  3795"}}, "geometry": {"type": "Point", "coordinates": [-90.35412270670044, 69.00878399534915]}}, {"type": "Feature", "properties": {"norad_id": 66743, "name": "TRANSPORTER-15CF", "group": "last-30-days", "lat": 82.49962258951288, "lon": -13.290674523513136, "alt_km": 501.70336083932216, "timestamp": "2025-12-24T03:53:28.361473+00:00", "meta": {"OBJECT_NAME": "TRANSPORTER-15CF", "OBJECT_ID": "2025-276CF", "EPOCH": "2025-12-23T16:25:40.336032", "MEAN_MOTION": 15.17950356, "ECCENTRICITY": 0.000254, "INCLINATION": 97.4402, "RA_OF_ASC_NODE": 69.2539, "ARG_OF_PERICENTER": 45.1302, "MEAN_ANOMALY": 315.0138, "EPHEMERIS_TYPE": 0, "CLASSIFICATION_TYPE": "U", "NORAD_CAT_ID": 66743, "ELEMENT_SET_NO": 999, "REV_AT_EPOCH": 378, "BSTAR": 0.028237, "MEAN_MOTION_DOT": 0.00615721, "MEAN_MOTION_DDOT": 0}, "tle": {"line1": "1 66743U 25276CF  25357.68449463  .00615721  00000+0  28237-1 0  9998", "line2": "2 66743  97.4402  69.2539 0002540  45.1302 315.0138 15.17950356  3785"}}, "geometry": {"type": "Point", "coordinates": [-13.290674523513136, 82.49962258951288]}}, {"type": "Feature", "properties": {"norad_id": 66744, "name": "TRANSPORTER-15CG", "group": "last-30-days", "lat": 79.19129189586819, "lon": -67.17632347502708, "alt_km": 517.5194541671781, "timestamp": "2025-12-24T03:53:28.361483+00:00", "meta": {"OBJECT_NAME": "TRANSPORTER-15CG", "OBJECT_ID": "2025-276CG", "EPOCH": "2025-12-23T00:34:56.380224", "MEAN_MOTION": 15.19817649, "ECCENTRICITY": 0.00245723, "INCLINATION": 97.4248, "RA_OF_ASC_NODE": 68.6225, "ARG_OF_PERICENTER": 243.3371, "MEAN_ANOMALY": 116.5347, "EPHEMERIS_TYPE": 0, "CLASSIFICATION_TYPE": "U", "NORAD_CAT_ID": 66744, "ELEMENT_SET_NO": 999, "REV_AT_EPOCH": 368, "BSTAR": -0.035805385, "MEAN_MOTION_DOT": -0.00722303, "MEAN_MOTION_DDOT": 0}, "tle": {"line1": "1 66744U 25276CG  25357.02426366 -.00722303  00000+0 -35805-1 0  9990", "line2": "2 66744  97.4248  68.6225 0024572 243.3371 116.5347 15.19817649  3680"}}, "geometry": {"type": "Point", "coordinates": [-67.17632347502708, 79.19129189586819]}}, {"type": "Feature", "properties": {"norad_id": 66745, "name": "TRANSPORTER-15CH", "group": "last-30-days", "lat": 82.12887710102619, "lon": -1.2451439523952963, "alt_km": 506.98535754699697, "timestamp": "2025-12-24T03:53:28.361494+00:00", "meta": {"OBJECT_NAME": "TRANSPORTER-15CH", "OBJECT_ID": "2025-276CH", "EPOCH": "2025-12-23T18:00:41.232672", "MEAN_MOTION": 15.17430278, "ECCENTRICITY": 0.0001499, "INCLINATION": 97.4411, "RA_OF_ASC_NODE": 69.3274, "ARG_OF_PERICENTER": 233.3743, "MEAN_ANOMALY": 126.7353, "EPHEMERIS_TYPE": 0, "CLASSIFICATION_TYPE": "U", "NORAD_CAT_ID": 66745, "ELEMENT_SET_NO": 999, "REV_AT_EPOCH": 379, "BSTAR": 0.00021629, "MEAN_MOTION_DOT": 4.26e-05, "MEAN_MOTION_DDOT": 0}, "tle": {"line1": "1 66745U 25276CH  25357.75047723  .00004260  00000+0  21629-3 0  9991", "line2": "2 66745  97.4411  69.3274 0001499 233.3743 126.7353 15.17430278  3799"}}, "geometry": {"type": "Point", "coordinates": [-1.2451439523952963, 82.12887710102619]}}, {"type": "Feature", "properties": {"norad_id": 66746, "name": "TRANSPORTER-15CJ", "group": "last-30-days", "lat": 82.55372649078421, "lon": -19.711649126306728, "alt_km": 507.5222315494693, "timestamp": "2025-12-24T03:53:28.361504+00:00", "meta": {"OBJECT_NAME": "TRANSPORTER-15CJ", "OBJECT_ID": "2025-276CJ", "EPOCH": "2025-12-22T10:20:58.283232", "MEAN_MOTION": 15.17466775, "ECCENTRICITY": 0.00025324, "INCLINATION": 97.4408, "RA_OF_ASC_NODE": 68.0277, "ARG_OF_PERICENTER": 254.7861, "MEAN_ANOMALY": 105.3092, "EPHEMERIS_TYPE": 0, "CLASSIFICATION_TYPE": "U", "NORAD_CAT_ID": 66746, "ELEMENT_SET_NO": 999, "REV_AT_EPOCH": 359, "BSTAR": 0.00067533479, "MEAN_MOTION_DOT": 0.00013472, "MEAN_MOTION_DDOT": 0}, "tle": {"line1": "1 66746U 25276CJ  25356.43123013  .00013472  00000+0  67533-3 0  9992", "line2": "2 66746  97.4408  68.0277 0002532 254.7861 105.3092 15.17466775  3594"}}, "geometry": {"type": "Point", "coordinates": [-19.711649126306728, 82.55372649078421]}}]}